COSMOS 2426 (717)       
1 29671U 06062B   20139.95268308 -.00000040  00000-0  10000-3 0  9994
2 29671  64.9792 268.9080 0020086 171.6614 140.2872  2.12962350104266
COSMOS 2433 (720)       
1 32275U 07052A   20140.51335565 -.00000072  00000-0  10000-3 0  9997
2 32275  65.9726  29.8845 0002176 286.4439 220.1085  2.13104262 97795
COSMOS 2432 (719)       
1 32276U 07052B   20140.52114234 -.00000072  00000-0  10000-3 0  9997
2 32276  65.9846  29.9734 0011494 334.7264 128.0647  2.13103706 97795
COSMOS 2434 (721)       
1 32393U 07065A   20140.28643347 -.00000039  00000-0  00000-0 0  9995
2 32393  64.5847 267.4183 0004374  97.1577 122.8675  2.13103054 96499
COSMOS 2436 (723)       
1 32395U 07065C   20140.40924339 -.00000038  00000-0  10000-3 0  9997
2 32395  64.5947 267.4635 0014015   5.7156  84.7777  2.13103031 96433
COSMOS 2456 (730)       
1 36111U 09070A   20140.45301332  .00000100  00000-0  00000-0 0  9997
2 36111  64.2252 147.0849 0006333 303.5215 217.7201  2.13102856 81166
COSMOS 2457 (733)       
1 36112U 09070B   20140.36677514  .00000101  00000-0  00000-0 0  9997
2 36112  64.2088 146.9848 0004795 196.3437  22.1498  2.13101487 81160
COSMOS 2459 (731)       
1 36400U 10007A   20140.26613897 -.00000073  00000-0  10000-3 0  9995
2 36400  65.8731  28.8685 0026826 351.4984 180.7110  2.13105160 79519
COSMOS 2461 (735)       
1 36401U 10007B   20140.40357103 -.00000072  00000-0  10000-3 0  9996
2 36401  65.8677  28.8338 0008190  56.4592 129.6040  2.13102017 79517
COSMOS 2460 (732)       
1 36402U 10007C   20140.25317685 -.00000074  00000-0  10000-3 0  9993
2 36402  65.8576  28.7976 0001598  23.6147  86.2502  2.13101410 79517
COSMOS 2464 (736)       
1 37139U 10041C   20140.18827337 -.00000040  00000-0  00000-0 0  9990
2 37139  64.1849 266.8766 0026452  13.4669 355.0758  2.13100674 75588
COSMOS 2474 (742)       
1 37829U 11055A   20140.29507493  .00000102  00000-0  00000-0 0  9990
2 37829  64.5449 148.1041 0010560 250.0557   4.9031  2.13101763 67158
COSMOS 2476 (744)       
1 37867U 11064A   20140.37122847  .00000102  00000-0  00000-0 0  9997
2 37867  64.5252 148.1452 0021543 243.0891 116.5453  2.13101916 66500
COSMOS 2477 (745)       
1 37868U 11064B   20140.32080613  .00000102  00000-0  00000-0 0  9997
2 37868  64.5346 148.2038 0019148 244.5095 254.9540  2.13101750 66461
COSMOS 2475 (743)       
1 37869U 11064C   20140.43546133  .00000102  00000-0  00000-0 0  9994
2 37869  64.5407 148.2005 0023528 263.4386 281.3300  2.13101962 66478
COSMOS 2485 (747)       
1 39155U 13019A   20140.55136715  .00000102  00000-0  00000-0 0  9990
2 39155  64.6925 148.4021 0021913 238.5972 303.8066  2.13101890 54986
COSMOS 2492 (754)       
1 39620U 14012A   20140.45931288 -.00000072  00000-0  10000-3 0  9999
2 39620  65.7484  28.5767 0014442 331.2223 175.6455  2.13103253 47938
COSMOS 2500 (755)       
1 40001U 14032A   20140.24693906 -.00000074  00000-0  00000-0 0  9993
2 40001  65.6866  28.5033 0004702 208.7619 355.8005  2.13102610 46148
COSMOS 2501 (702K)      
1 40315U 14075A   20140.39935086 -.00000039  00000-0  00000+0 0  9992
2 40315  63.9038 267.8259 0016028 204.8223 271.8963  2.13098643 42559
COSMOS 2514 (751)       
1 41330U 16008A   20140.41119255 -.00000073  00000-0  00000-0 0  9992
2 41330  65.4889  28.3751 0008289 216.9641 295.9792  2.13103043 33315
COSMOS 2516 (753)       
1 41554U 16032A   20140.46016870 -.00000038  00000-0  00000+0 0  9991
2 41554  64.1245 267.8842 0011905 212.6409 228.6533  2.13101699 30925
COSMOS 2522 (752)       
1 42939U 17055A   20140.49102813 -.00000038  00000-0  00000+0 0  9991
2 42939  64.3592 268.0561 0006309 241.5042  90.0351  2.13101893 20673
COSMOS 2527 (756)       
1 43508U 18053A   20140.60233242  .00000102  00000-0  00000-0 0  9999
2 43508  64.8574 148.2407 0009248 243.7850 204.9052  2.13102604 14976
COSMOS 2529 (757)       
1 43687U 18086A   20140.42189964 -.00000038  00000-0  00000-0 0  9993
2 43687  64.5725 268.1727 0008489 272.2168 321.9081  2.13102069 11986
COSMOS 2534 (758)       
1 44299U 19030A   20140.51581734 -.00000037  00000-0  00000-0 0  9993
2 44299  64.6418 267.9806 0011718 291.8985 149.3372  2.13102014  7636
